QIANFAN-113             
1 68640U 26075E   26196.88353050  .00000077  00000+0  10077-3 0  9991
2 68640  88.9920 318.0669 0001988 106.9846 253.1524 13.51018509 13688
QIANFAN-114             
1 68641U 26075F   26196.89172411  .00000072  00000+0  92807-4 0  9990
2 68641  88.9915 318.0839 0002056 104.1788 255.9591 13.51017267 13677
QIANFAN-115             
1 68642U 26075G   26196.92044703  .00000072  00000+0  92120-4 0  9995
2 68642  88.9915 318.0882 0002192 107.0639 253.0753 13.51013987 13678
QIANFAN-116             
1 68643U 26075H   26196.90810710  .00000070  00000+0  89933-4 0  9999
2 68643  88.9908 318.0474 0001967 114.2147 245.9210 13.51014565 13683
QIANFAN-117             
1 68644U 26075J   26196.82168688  .00000021  00000+0  14657-4 0  9998
2 68644  88.9913 318.0732 0002151 111.1059 249.0322 13.51024191 13675
QIANFAN-118             
1 68645U 26075K   26196.85461757  .00000087  00000+0  11576-3 0  9993
2 68645  88.9917 318.0793 0001974 101.9138 258.2235 13.51014362 13678
QIANFAN-119             
1 68646U 26075L   26196.90403675  .00000070  00000+0  90303-4 0  9993
2 68646  88.9918 318.0698 0002247 112.5886 247.5503 13.51020653 13686
QIANFAN-120             
1 68647U 26075M   26196.91649300  .00000076  00000+0  99250-4 0  9998
2 68647  88.9919 318.0540 0002399 112.6862 247.4543 13.51021085 13691
QIANFAN-121             
1 68648U 26075N   26196.86699427  .00000071  00000+0  91669-4 0  9999
2 68648  88.9917 318.0634 0002042 102.4178 257.7202 13.51013192 13681
QIANFAN-122             
1 68649U 26075P   26196.85888362  .00000071  00000+0  90867-4 0  9996
2 68649  88.9916 318.0621 0002167 112.8651 247.2729 13.51016858 13675
QIANFAN-123             
1 68650U 26075Q   26196.90007113  .00000066  00000+0  82812-4 0  9996
2 68650  88.9912 318.0470 0002280 117.7453 242.3930 13.51015227 13663
QIANFAN-124             
1 68651U 26075R   26196.85066056  .00000073  00000+0  94779-4 0  9995
2 68651  88.9915 318.0617 0002177 114.7967 245.3411 13.51016415 13681
QIANFAN-125             
1 68652U 26075S   26196.86288653  .00000072  00000+0  93340-4 0  9998
2 68652  88.9915 318.0626 0002015 102.5921 257.5455 13.51013413 13686
QIANFAN-126             
1 68653U 26075T   26196.87119035  .00000064  00000+0  80276-4 0  9992
2 68653  88.9919 318.0285 0002291 117.3048 242.8337 13.51018459 13706
QIANFAN-127             
1 69073U 26104A   26196.90514383 -.00000007  00000+0 -26900-4 0  9994
2 69073  88.9910 338.5372 0009211   3.9142 356.2084 13.57855778  9031
QIANFAN-128             
1 69074U 26104B   26196.74208124 -.01890613  00000+0 -30724+1 0  9996
2 69074  88.9886 338.5865 0010431  30.9856 329.1909 13.52440345  8993
