{"fetched_at":"2026-07-16T06:42:36.857Z","source":"https://celestrak.org/NORAD/elements/gp.php?GROUP=qianfan&FORMAT=JSON","constellation":"qianfan","records":[{"OBJECT_NAME":"QIANFAN-113","OBJECT_ID":"2026-075E","EPOCH":"2026-07-15T21:12:17.035200","CLASSIFICATION_TYPE":"U","MEAN_MOTION":13.51018509,"ECCENTRICITY":0.00019889,"INCLINATION":88.992,"RA_OF_ASC_NODE":318.0669,"ARG_OF_PERICENTER":106.9846,"MEAN_ANOMALY":253.1524,"EPHEMERIS_TYPE":0,"NORAD_CAT_ID":68640,"ELEMENT_SET_NO":999,"REV_AT_EPOCH":1368,"BSTAR":0.00010076752,"MEAN_MOTION_DOT":7.7e-7,"MEAN_MOTION_DDOT":0},{"OBJECT_NAME":"QIANFAN-114","OBJECT_ID":"2026-075F","EPOCH":"2026-07-15T21:24:04.963104","CLASSIFICATION_TYPE":"U","MEAN_MOTION":13.51017267,"ECCENTRICITY":0.00020562,"INCLINATION":88.9915,"RA_OF_ASC_NODE":318.0839,"ARG_OF_PERICENTER":104.1788,"MEAN_ANOMALY":255.9591,"EPHEMERIS_TYPE":0,"NORAD_CAT_ID":68641,"ELEMENT_SET_NO":999,"REV_AT_EPOCH":1367,"BSTAR":0.000092806581,"MEAN_MOTION_DOT":7.2e-7,"MEAN_MOTION_DDOT":0},{"OBJECT_NAME":"QIANFAN-115","OBJECT_ID":"2026-075G","EPOCH":"2026-07-15T22:05:26.623392","CLASSIFICATION_TYPE":"U","MEAN_MOTION":13.51013987,"ECCENTRICITY":0.00021928,"INCLINATION":88.9915,"RA_OF_ASC_NODE":318.0882,"ARG_OF_PERICENTER":107.0639,"MEAN_ANOMALY":253.0753,"EPHEMERIS_TYPE":0,"NORAD_CAT_ID":68642,"ELEMENT_SET_NO":999,"REV_AT_EPOCH":1367,"BSTAR":0.000092119865,"MEAN_MOTION_DOT":7.2e-7,"MEAN_MOTION_DDOT":0},{"OBJECT_NAME":"QIANFAN-116","OBJECT_ID":"2026-075H","EPOCH":"2026-07-15T21:47:40.453440","CLASSIFICATION_TYPE":"U","MEAN_MOTION":13.51014565,"ECCENTRICITY":0.00019677,"INCLINATION":88.9908,"RA_OF_ASC_NODE":318.0474,"ARG_OF_PERICENTER":114.2147,"MEAN_ANOMALY":245.921,"EPHEMERIS_TYPE":0,"NORAD_CAT_ID":68643,"ELEMENT_SET_NO":999,"REV_AT_EPOCH":1368,"BSTAR":0.000089933107,"MEAN_MOTION_DOT":7e-7,"MEAN_MOTION_DDOT":0},{"OBJECT_NAME":"QIANFAN-117","OBJECT_ID":"2026-075J","EPOCH":"2026-07-15T19:43:13.746432","CLASSIFICATION_TYPE":"U","MEAN_MOTION":13.51024191,"ECCENTRICITY":0.00021515,"INCLINATION":88.9913,"RA_OF_ASC_NODE":318.0732,"ARG_OF_PERICENTER":111.1059,"MEAN_ANOMALY":249.0322,"EPHEMERIS_TYPE":0,"NORAD_CAT_ID":68644,"ELEMENT_SET_NO":999,"REV_AT_EPOCH":1367,"BSTAR":0.000014656787,"MEAN_MOTION_DOT":2.1e-7,"MEAN_MOTION_DDOT":0},{"OBJECT_NAME":"QIANFAN-118","OBJECT_ID":"2026-075K","EPOCH":"2026-07-15T20:30:38.958048","CLASSIFICATION_TYPE":"U","MEAN_MOTION":13.51014362,"ECCENTRICITY":0.00019741,"INCLINATION":88.9917,"RA_OF_ASC_NODE":318.0793,"ARG_OF_PERICENTER":101.9138,"MEAN_ANOMALY":258.2235,"EPHEMERIS_TYPE":0,"NORAD_CAT_ID":68645,"ELEMENT_SET_NO":999,"REV_AT_EPOCH":1367,"BSTAR":0.00011575851,"MEAN_MOTION_DOT":8.7e-7,"MEAN_MOTION_DDOT":0},{"OBJECT_NAME":"QIANFAN-119","OBJECT_ID":"2026-075L","EPOCH":"2026-07-15T21:41:48.775200","CLASSIFICATION_TYPE":"U","MEAN_MOTION":13.51020653,"ECCENTRICITY":0.00022475,"INCLINATION":88.9918,"RA_OF_ASC_NODE":318.0698,"ARG_OF_PERICENTER":112.5886,"MEAN_ANOMALY":247.5503,"EPHEMERIS_TYPE":0,"NORAD_CAT_ID":68646,"ELEMENT_SET_NO":999,"REV_AT_EPOCH":1368,"BSTAR":0.000090303386,"MEAN_MOTION_DOT":7e-7,"MEAN_MOTION_DDOT":0},{"OBJECT_NAME":"QIANFAN-120","OBJECT_ID":"2026-075M","EPOCH":"2026-07-15T21:59:44.995200","CLASSIFICATION_TYPE":"U","MEAN_MOTION":13.51021085,"ECCENTRICITY":0.0002399,"INCLINATION":88.9919,"RA_OF_ASC_NODE":318.054,"ARG_OF_PERICENTER":112.6862,"MEAN_ANOMALY":247.4543,"EPHEMERIS_TYPE":0,"NORAD_CAT_ID":68647,"ELEMENT_SET_NO":999,"REV_AT_EPOCH":1369,"BSTAR":0.000099249706,"MEAN_MOTION_DOT":7.6e-7,"MEAN_MOTION_DDOT":0},{"OBJECT_NAME":"QIANFAN-121","OBJECT_ID":"2026-075N","EPOCH":"2026-07-15T20:48:28.304928","CLASSIFICATION_TYPE":"U","MEAN_MOTION":13.51013192,"ECCENTRICITY":0.00020428,"INCLINATION":88.9917,"RA_OF_ASC_NODE":318.0634,"ARG_OF_PERICENTER":102.4178,"MEAN_ANOMALY":257.7202,"EPHEMERIS_TYPE":0,"NORAD_CAT_ID":68648,"ELEMENT_SET_NO":999,"REV_AT_EPOCH":1368,"BSTAR":0.00009166898,"MEAN_MOTION_DOT":7.1e-7,"MEAN_MOTION_DDOT":0},{"OBJECT_NAME":"QIANFAN-122","OBJECT_ID":"2026-075P","EPOCH":"2026-07-15T20:36:47.544768","CLASSIFICATION_TYPE":"U","MEAN_MOTION":13.51016858,"ECCENTRICITY":0.00021678,"INCLINATION":88.9916,"RA_OF_ASC_NODE":318.0621,"ARG_OF_PERICENTER":112.8651,"MEAN_ANOMALY":247.2729,"EPHEMERIS_TYPE":0,"NORAD_CAT_ID":68649,"ELEMENT_SET_NO":999,"REV_AT_EPOCH":1367,"BSTAR":0.000090867424,"MEAN_MOTION_DOT":7.1e-7,"MEAN_MOTION_DDOT":0},{"OBJECT_NAME":"QIANFAN-123","OBJECT_ID":"2026-075Q","EPOCH":"2026-07-15T21:36:06.145632","CLASSIFICATION_TYPE":"U","MEAN_MOTION":13.51015227,"ECCENTRICITY":0.00022801,"INCLINATION":88.9912,"RA_OF_ASC_NODE":318.047,"ARG_OF_PERICENTER":117.7453,"MEAN_ANOMALY":242.393,"EPHEMERIS_TYPE":0,"NORAD_CAT_ID":68650,"ELEMENT_SET_NO":999,"REV_AT_EPOCH":1366,"BSTAR":0.00008281213,"MEAN_MOTION_DOT":6.6e-7,"MEAN_MOTION_DDOT":0},{"OBJECT_NAME":"QIANFAN-124","OBJECT_ID":"2026-075R","EPOCH":"2026-07-15T20:24:57.072384","CLASSIFICATION_TYPE":"U","MEAN_MOTION":13.51016415,"ECCENTRICITY":0.00021772,"INCLINATION":88.9915,"RA_OF_ASC_NODE":318.0617,"ARG_OF_PERICENTER":114.7967,"MEAN_ANOMALY":245.3411,"EPHEMERIS_TYPE":0,"NORAD_CAT_ID":68651,"ELEMENT_SET_NO":999,"REV_AT_EPOCH":1368,"BSTAR":0.000094778571,"MEAN_MOTION_DOT":7.3e-7,"MEAN_MOTION_DDOT":0},{"OBJECT_NAME":"QIANFAN-125","OBJECT_ID":"2026-075S","EPOCH":"2026-07-15T20:42:33.396192","CLASSIFICATION_TYPE":"U","MEAN_MOTION":13.51013413,"ECCENTRICITY":0.00020153,"INCLINATION":88.9915,"RA_OF_ASC_NODE":318.0626,"ARG_OF_PERICENTER":102.5921,"MEAN_ANOMALY":257.5455,"EPHEMERIS_TYPE":0,"NORAD_CAT_ID":68652,"ELEMENT_SET_NO":999,"REV_AT_EPOCH":1368,"BSTAR":0.000093339846,"MEAN_MOTION_DOT":7.2e-7,"MEAN_MOTION_DDOT":0},{"OBJECT_NAME":"QIANFAN-126","OBJECT_ID":"2026-075T","EPOCH":"2026-07-15T20:54:30.846240","CLASSIFICATION_TYPE":"U","MEAN_MOTION":13.51018459,"ECCENTRICITY":0.00022915,"INCLINATION":88.9919,"RA_OF_ASC_NODE":318.0285,"ARG_OF_PERICENTER":117.3048,"MEAN_ANOMALY":242.8337,"EPHEMERIS_TYPE":0,"NORAD_CAT_ID":68653,"ELEMENT_SET_NO":999,"REV_AT_EPOCH":1370,"BSTAR":0.000080275778,"MEAN_MOTION_DOT":6.4e-7,"MEAN_MOTION_DDOT":0},{"OBJECT_NAME":"QIANFAN-127","OBJECT_ID":"2026-104A","EPOCH":"2026-07-15T21:43:24.426912","CLASSIFICATION_TYPE":"U","MEAN_MOTION":13.57855778,"ECCENTRICITY":0.00092115,"INCLINATION":88.991,"RA_OF_ASC_NODE":338.5372,"ARG_OF_PERICENTER":3.9142,"MEAN_ANOMALY":356.2084,"EPHEMERIS_TYPE":0,"NORAD_CAT_ID":69073,"ELEMENT_SET_NO":999,"REV_AT_EPOCH":903,"BSTAR":-0.000026900241,"MEAN_MOTION_DOT":-7e-8,"MEAN_MOTION_DDOT":0},{"OBJECT_NAME":"QIANFAN-128","OBJECT_ID":"2026-104B","EPOCH":"2026-07-15T17:48:35.819136","CLASSIFICATION_TYPE":"U","MEAN_MOTION":13.52440345,"ECCENTRICITY":0.00104312,"INCLINATION":88.9886,"RA_OF_ASC_NODE":338.5865,"ARG_OF_PERICENTER":30.9856,"MEAN_ANOMALY":329.1909,"EPHEMERIS_TYPE":0,"NORAD_CAT_ID":69074,"ELEMENT_SET_NO":999,"REV_AT_EPOCH":899,"BSTAR":-3.072366,"MEAN_MOTION_DOT":-0.01890613,"MEAN_MOTION_DDOT":0}]}
